start=new Date('2021-08-31T00:00:00.000Z').valueOf();
sats=[{"DECAY_DATE":null,"PERIAPSIS":"546.369","RA_OF_ASC_NODE":"348.3582","SEMIMAJOR_AXIS":"6925.384","INCLINATION":"53.0575","MEAN_MOTION_DDOT":"0.0000000000000","RCS_SIZE":"LARGE","EPHEMERIS_TYPE":"0","TIME_SYSTEM":"UTC","APOAPSIS":"548.129","MEAN_MOTION_DOT":"0.00000122","MEAN_ANOMALY":"225.6405","REV_AT_EPOCH":"1618","GP_ID":"183733155","TLE_LINE2":"2 48588  53.0575 348.3582 0001271 134.4688 225.6405 15.06388373 16182","COUNTRY_CODE":"US","REF_FRAME":"TEME","OBJECT_TYPE":"PAYLOAD","CLASSIFICATION_TYPE":"U","EPOCH":"2021-08-30T13:15:13.815072","TLE_LINE1":"1 48588U 21041AM  21242.55224323  .00000122  00000-0  27101-4 0  9998","SITE":"AFETR","CENTER_NAME":"EARTH","OBJECT_ID":"2021-041AM","BSTAR":"0.00002710100000","MEAN_MOTION":"15.06388373","PERIOD":"95.593","ARG_OF_PERICENTER":"134.4688","OBJECT_NAME":"STARLINK-2244","NORAD_CAT_ID":"48588","ECCENTRICITY":"0.00012710","FILE":"3105635","MEAN_ELEMENT_THEORY":"SGP4","LAUNCH_DATE":"2021-05-15","ELEMENT_SET_NO":"999"},{"REV_AT_EPOCH":"1666","GP_ID":"183736341","APOAPSIS":"548.207","MEAN_MOTION_DOT":"-0.00000189","MEAN_ANOMALY":"204.7538","COUNTRY_CODE":"US","TLE_LINE2":"2 48589  53.0548 347.4799 0001405 155.3518 204.7538 15.06393173 16668","SEMIMAJOR_AXIS":"6925.369","INCLINATION":"53.0548","DECAY_DATE":null,"PERIAPSIS":"546.261","RA_OF_ASC_NODE":"347.4799","TIME_SYSTEM":"UTC","MEAN_MOTION_DDOT":"0.0000000000000","RCS_SIZE":"LARGE","EPHEMERIS_TYPE":"0","BSTAR":"0.00000617690000","ECCENTRICITY":"0.00014050","FILE":"3105781","LAUNCH_DATE":"2021-05-15","MEAN_ELEMENT_THEORY":"SGP4","ELEMENT_SET_NO":"999","PERIOD":"95.593","MEAN_MOTION":"15.06393173","ARG_OF_PERICENTER":"155.3518","OBJECT_NAME":"STARLINK-2245","NORAD_CAT_ID":"48589","EPOCH":"2021-08-30T17:56:30.833376","SITE":"AFETR","TLE_LINE1":"1 48589U 21041AN  21242.74757909 -.00000189  00000-0  61769-5 0  9994","CENTER_NAME":"EARTH","CLASSIFICATION_TYPE":"U","OBJECT_TYPE":"PAYLOAD","REF_FRAME":"TEME","OBJECT_ID":"2021-041AN"},{"REV_AT_EPOCH":"1638","GP_ID":"183734065","APOAPSIS":"548.008","MEAN_MOTION_DOT":"0.00018129","MEAN_ANOMALY":"207.1497","COUNTRY_CODE":"US","TLE_LINE2":"2 48590  53.0548 357.0830 0001029 123.2844 207.1497 15.06373358 16384","SEMIMAJOR_AXIS":"6925.430","INCLINATION":"53.0548","DECAY_DATE":null,"PERIAPSIS":"546.583","RA_OF_ASC_NODE":"357.0830","TIME_SYSTEM":"UTC","MEAN_MOTION_DDOT":"0.0000000000000","RCS_SIZE":"LARGE","EPHEMERIS_TYPE":"0","BSTAR":"0.00123370000000","ECCENTRICITY":"0.00010290","FILE":"3105686","MEAN_ELEMENT_THEORY":"SGP4","LAUNCH_DATE":"2021-05-15","ELEMENT_SET_NO":"999","PERIOD":"95.594","ARG_OF_PERICENTER":"123.2844","MEAN_MOTION":"15.06373358","OBJECT_NAME":"STARLINK-2246","NORAD_CAT_ID":"48590","EPOCH":"2021-08-30T20:00:01.000224","TLE_LINE1":"1 48590U 21041AP  21242.83334491  .00018129  00000-0  12337-2 0  9999","SITE":"AFETR","CENTER_NAME":"EARTH","REF_FRAME":"TEME","OBJECT_TYPE":"PAYLOAD","CLASSIFICATION_TYPE":"U","OBJECT_ID":"2021-041AP"},{"BSTAR":"-0.00012256000000","ECCENTRICITY":"0.00011490","LAUNCH_DATE":"2021-05-15","FILE":"3105635","MEAN_ELEMENT_THEORY":"SGP4","ELEMENT_SET_NO":"999","MEAN_MOTION":"15.06397893","PERIOD":"95.592","ARG_OF_PERICENTER":"153.9969","OBJECT_NAME":"STARLINK-2248","NORAD_CAT_ID":"48591","EPOCH":"2021-08-30T12:59:17.631456","TLE_LINE1":"1 48591U 21041AQ  21242.54117629 -.00002106  00000-0 -12256-3 0  9991","SITE":"AFETR","CENTER_NAME":"EARTH","CLASSIFICATION_TYPE":"U","OBJECT_TYPE":"PAYLOAD","REF_FRAME":"TEME","OBJECT_ID":"2021-041AQ","REV_AT_EPOCH":"1708","GP_ID":"183733407","APOAPSIS":"548.016","MEAN_MOTION_DOT":"-0.00002106","MEAN_ANOMALY":"206.1078","COUNTRY_CODE":"US","TLE_LINE2":"2 48591  53.0561 348.4025 0001149 153.9969 206.1078 15.06397893 17083","SEMIMAJOR_AXIS":"6925.355","INCLINATION":"53.0561","DECAY_DATE":null,"PERIAPSIS":"546.424","RA_OF_ASC_NODE":"348.4025","TIME_SYSTEM":"UTC","MEAN_MOTION_DDOT":"0.0000000000000","RCS_SIZE":"LARGE","EPHEMERIS_TYPE":"0"},{"TLE_LINE2":"2 48592  53.0573 358.4001 0001443 132.1658 227.9454 15.06389431 16046","COUNTRY_CODE":"US","MEAN_MOTION_DOT":"-0.00001346","APOAPSIS":"548.245","MEAN_ANOMALY":"227.9454","REV_AT_EPOCH":"1604","GP_ID":"183733496","MEAN_MOTION_DDOT":"0.0000000000000","RCS_SIZE":"MEDIUM","EPHEMERIS_TYPE":"0","TIME_SYSTEM":"UTC","DECAY_DATE":null,"PERIAPSIS":"546.247","RA_OF_ASC_NODE":"358.4001","SEMIMAJOR_AXIS":"6925.381","INCLINATION":"53.0573","ARG_OF_PERICENTER":"132.1658","PERIOD":"95.593","MEAN_MOTION":"15.06389431","OBJECT_NAME":"STARLINK-2249","NORAD_CAT_ID":"48592","ECCENTRICITY":"0.00014430","FILE":"3105635","LAUNCH_DATE":"2021-05-15","MEAN_ELEMENT_THEORY":"SGP4","ELEMENT_SET_NO":"999","BSTAR":"-0.00007149400000","OBJECT_ID":"2021-041AR","OBJECT_TYPE":"PAYLOAD","REF_FRAME":"TEME","CLASSIFICATION_TYPE":"U","EPOCH":"2021-08-30T12:57:58.230720","TLE_LINE1":"1 48592U 21041AR  21242.54025730 -.00001346  00000-0 -71494-4 0  9998","SITE":"AFETR","CENTER_NAME":"EARTH"},{"MEAN_MOTION_DOT":"-0.00001165","APOAPSIS":"548.042","MEAN_ANOMALY":"221.4902","REV_AT_EPOCH":"1637","GP_ID":"183736352","TLE_LINE2":"2 48593  53.0569 357.4706 0001193 138.6178 221.4902 15.06399155 16370","COUNTRY_CODE":"US","DECAY_DATE":null,"PERIAPSIS":"546.390","RA_OF_ASC_NODE":"357.4706","SEMIMAJOR_AXIS":"6925.351","INCLINATION":"53.0569","MEAN_MOTION_DDOT":"0.0000000000000","RCS_SIZE":"LARGE","EPHEMERIS_TYPE":"0","TIME_SYSTEM":"UTC","BSTAR":"-0.00005934100000","ARG_OF_PERICENTER":"138.6178","PERIOD":"95.592","MEAN_MOTION":"15.06399155","OBJECT_NAME":"STARLINK-2250","NORAD_CAT_ID":"48593","ECCENTRICITY":"0.00011930","MEAN_ELEMENT_THEORY":"SGP4","FILE":"3105782","LAUNCH_DATE":"2021-05-15","ELEMENT_SET_NO":"999","CLASSIFICATION_TYPE":"U","OBJECT_TYPE":"PAYLOAD","REF_FRAME":"TEME","EPOCH":"2021-08-30T17:55:11.723808","SITE":"AFETR","TLE_LINE1":"1 48593U 21041AS  21242.74666347 -.00001165  00000-0 -59341-4 0  9992","CENTER_NAME":"EARTH","OBJECT_ID":"2021-041AS"},{"EPHEMERIS_TYPE":"0","MEAN_MOTION_DDOT":"0.0000000000000","RCS_SIZE":"LARGE","TIME_SYSTEM":"UTC","PERIAPSIS":"438.263","RA_OF_ASC_NODE":"331.3149","DECAY_DATE":null,"INCLINATION":"53.0550","SEMIMAJOR_AXIS":"6817.789","TLE_LINE2":"2 48594  53.0550 331.3149 0002040  27.5637 167.0329 15.42188341 16901","COUNTRY_CODE":"US","MEAN_ANOMALY":"167.0329","MEAN_MOTION_DOT":"-0.00017160","APOAPSIS":"441.045","GP_ID":"183736342","REV_AT_EPOCH":"1690","OBJECT_ID":"2021-041AT","CLASSIFICATION_TYPE":"U","OBJECT_TYPE":"PAYLOAD","REF_FRAME":"TEME","SITE":"AFETR","TLE_LINE1":"1 48594U 21041AT  21242.91668981 -.00017160  00000-0 -38531-3 0  9997","CENTER_NAME":"EARTH","EPOCH":"2021-08-30T22:00:01.999584","NORAD_CAT_ID":"48594","PERIOD":"93.374","MEAN_MOTION":"15.42188341","ARG_OF_PERICENTER":"27.5637","OBJECT_NAME":"STARLINK-2251","LAUNCH_DATE":"2021-05-15","FILE":"3105782","MEAN_ELEMENT_THEORY":"SGP4","ELEMENT_SET_NO":"999","ECCENTRICITY":"0.00020400","BSTAR":"-0.00038531000000"},{"CLASSIFICATION_TYPE":"U","OBJECT_TYPE":"PAYLOAD","REF_FRAME":"TEME","CENTER_NAME":"EARTH","TLE_LINE1":"1 48595U 21041AU  21241.53351204  .00074017  00000-0  48640-2 0  9995","SITE":"AFETR","EPOCH":"2021-08-29T12:48:15.440256","OBJECT_ID":"2021-041AU","BSTAR":"0.00486400000000","NORAD_CAT_ID":"48595","OBJECT_NAME":"STARLINK-2252","ARG_OF_PERICENTER":"189.3914","PERIOD":"95.558","MEAN_MOTION":"15.06937849","ELEMENT_SET_NO":"999","LAUNCH_DATE":"2021-05-15","FILE":"3105060","MEAN_ELEMENT_THEORY":"SGP4","ECCENTRICITY":"0.00051150","RA_OF_ASC_NODE":"2.9118","PERIAPSIS":"542.024","DECAY_DATE":null,"INCLINATION":"53.0569","SEMIMAJOR_AXIS":"6923.701","EPHEMERIS_TYPE":"0","RCS_SIZE":"LARGE","MEAN_MOTION_DDOT":"0.0000000000000","TIME_SYSTEM":"UTC","MEAN_ANOMALY":"170.6980","APOAPSIS":"549.107","MEAN_MOTION_DOT":"0.00074017","GP_ID":"183673677","REV_AT_EPOCH":"1716","TLE_LINE2":"2 48595  53.0569   2.9118 0005115 189.3914 170.6980 15.06937849 17167","COUNTRY_CODE":"US"},{"OBJECT_ID":"2021-041AV","EPOCH":"2021-08-30T22:00:01.999584","CENTER_NAME":"EARTH","TLE_LINE1":"1 48596U 21041AV  21242.91668981 -.00021361  00000-0 -14200-2 0  9993","SITE":"AFETR","REF_FRAME":"TEME","OBJECT_TYPE":"PAYLOAD","CLASSIFICATION_TYPE":"U","ECCENTRICITY":"0.00015240","ELEMENT_SET_NO":"999","MEAN_ELEMENT_THEORY":"SGP4","FILE":"3105782","LAUNCH_DATE":"2021-05-15","OBJECT_NAME":"STARLINK-2253","MEAN_MOTION":"15.06385627","PERIOD":"95.593","ARG_OF_PERICENTER":"118.2693","NORAD_CAT_ID":"48596","BSTAR":"-0.00142000000000","TIME_SYSTEM":"UTC","RCS_SIZE":"LARGE","MEAN_MOTION_DDOT":"0.0000000000000","EPHEMERIS_TYPE":"0","SEMIMAJOR_AXIS":"6925.393","INCLINATION":"53.0555","DECAY_DATE":null,"RA_OF_ASC_NODE":"356.7092","PERIAPSIS":"546.202","COUNTRY_CODE":"US","TLE_LINE2":"2 48596  53.0555 356.7092 0001524 118.2693  64.3404 15.06385627 16552","REV_AT_EPOCH":"1655","GP_ID":"183736734","APOAPSIS":"548.313","MEAN_MOTION_DOT":"-0.00021361","MEAN_ANOMALY":"64.3404"},{"MEAN_MOTION_DOT":"-0.00021201","APOAPSIS":"547.962","MEAN_ANOMALY":"20.0595","REV_AT_EPOCH":"1736","GP_ID":"183736726","TLE_LINE2":"2 48597  53.0558 356.7112 0001066 122.6170  20.0595 15.06396529 17362","COUNTRY_CODE":"US","DECAY_DATE":null,"PERIAPSIS":"546.486","RA_OF_ASC_NODE":"356.7112","SEMIMAJOR_AXIS":"6925.359","INCLINATION":"53.0558","MEAN_MOTION_DDOT":"0.0000000000000","RCS_SIZE":"LARGE","EPHEMERIS_TYPE":"0","TIME_SYSTEM":"UTC","BSTAR":"-0.00140880000000","PERIOD":"95.592","ARG_OF_PERICENTER":"122.6170","MEAN_MOTION":"15.06396529","OBJECT_NAME":"STARLINK-2255","NORAD_CAT_ID":"48597","ECCENTRICITY":"0.00010660","FILE":"3105782","MEAN_ELEMENT_THEORY":"SGP4","LAUNCH_DATE":"2021-05-15","ELEMENT_SET_NO":"999","REF_FRAME":"TEME","OBJECT_TYPE":"PAYLOAD","CLASSIFICATION_TYPE":"U","EPOCH":"2021-08-30T22:00:01.999584","TLE_LINE1":"1 48597U 21041AW  21242.91668981 -.00021201  00000-0 -14088-2 0  9991","SITE":"AFETR","CENTER_NAME":"EARTH","OBJECT_ID":"2021-041AW"}];
